[{"OBJECT_NAME":"STARLINK-5303","OBJECT_ID":"2023-021C","EPOCH":"2026-03-09T19:15:47.208672","MEAN_MOTION":14.98330043,"ECCENTRICITY":0.00030645,"INCLINATION":70.0006,"RA_OF_ASC_NODE":204.2304,"ARG_OF_PERICENTER":269.6598,"MEAN_ANOMALY":90.421,"EPHEMERIS_TYPE":0,"CLASSIFICATION_TYPE":"U","NORAD_CAT_ID":55630,"ELEMENT_SET_NO":999,"REV_AT_EPOCH":16831,"BSTAR":1.049799e-5,"MEAN_MOTION_DOT":3.2e-7,"MEAN_MOTION_DDOT":0},{"OBJECT_NAME":"KORSAT-2","OBJECT_ID":"2024-247A","EPOCH":"2026-03-09T09:51:24.769440","MEAN_MOTION":14.99271316,"ECCENTRICITY":0.00097734,"INCLINATION":45.4085,"RA_OF_ASC_NODE":225.0391,"ARG_OF_PERICENTER":57.7708,"MEAN_ANOMALY":302.4117,"EPHEMERIS_TYPE":0,"CLASSIFICATION_TYPE":"U","NORAD_CAT_ID":62377,"ELEMENT_SET_NO":999,"REV_AT_EPOCH":6659,"BSTAR":0.00043497982,"MEAN_MOTION_DOT":5.163e-5,"MEAN_MOTION_DDOT":0}]
